{
  "type": "FeatureCollection",
  "features": [
    {
      "type": "Feature",
      "properties": {
        "norad_id": 37533,
        "name": "COSMOS 2251 DEB",
        "group": "cosmos-2251-debris",
        "lat": 5.311247228603445,
        "lon": 1.9785744558504852,
        "alt_km": 803.2708618072465,
        "timestamp": "2025-12-17T10:52:54.750234+00:00",
        "meta_object_name": "COSMOS 2251 DEB",
        "meta_object_id": "1993-036BNN",
        "meta_epoch": "2025-12-10T19:55:37.417152",
        "meta_mean_motion": 14.12152288,
        "meta_eccentricity": 0.01580439,
        "meta_inclination": 74.0697,
        "meta_ra_of_asc_node": 195.1706,
        "meta_arg_of_pericenter": 252.2523,
        "meta_mean_anomaly": 106.1316,
        "meta_ephemeris_type": 0,
        "meta_classification_type": "U",
        "meta_norad_cat_id": 37533,
        "meta_element_set_no": 999,
        "meta_rev_at_epoch": 62894,
        "meta_bstar": 0.0019185157,
        "meta_mean_motion_dot": 3.939e-05,
        "meta_mean_motion_ddot": 0,
        "tle_line1": "1 37533U 93036BNN 25344.83029418  .00003939  00000+0  19185-2 0  9994",
        "tle_line2": "2 37533  74.0697 195.1706 0158043 252.2523 106.1316 14.12152288628948"
      },
      "geometry": {
        "type": "Point",
        "coordinates": [
          1.9785744558504852,
          5.311247228603445
        ]
      }
    },
    {
      "type": "Feature",
      "properties": {
        "norad_id": 37535,
        "name": "COSMOS 2251 DEB",
        "group": "cosmos-2251-debris",
        "lat": 16.717287299394165,
        "lon": -120.41395666688291,
        "alt_km": 683.3604543209676,
        "timestamp": "2025-12-17T10:52:54.750244+00:00",
        "meta_object_name": "COSMOS 2251 DEB",
        "meta_object_id": "1993-036BNQ",
        "meta_epoch": "2025-12-16T11:09:24.966720",
        "meta_mean_motion": 14.58483395,
        "meta_eccentricity": 0.00276052,
        "meta_inclination": 74.0246,
        "meta_ra_of_asc_node": 66.4041,
        "meta_arg_of_pericenter": 204.8824,
        "meta_mean_anomaly": 169.5593,
        "meta_ephemeris_type": 0,
        "meta_classification_type": "U",
        "meta_norad_cat_id": 37535,
        "meta_element_set_no": 999,
        "meta_rev_at_epoch": 85379,
        "meta_bstar": 0.00051799553,
        "meta_mean_motion_dot": 2.388e-05,
        "meta_mean_motion_ddot": 0,
        "tle_line1": "1 37535U 93036BNQ 25350.46487230  .00002388  00000+0  51800-3 0  9990",
        "tle_line2": "2 37535  74.0246  66.4041 0027605 204.8824 169.5593 14.58483395853797"
      },
      "geometry": {
        "type": "Point",
        "coordinates": [
          -120.41395666688291,
          16.717287299394165
        ]
      }
    },
    {
      "type": "Feature",
      "properties": {
        "norad_id": 37537,
        "name": "COSMOS 2251 DEB",
        "group": "cosmos-2251-debris",
        "lat": -2.4413508813537006,
        "lon": -104.2574699937425,
        "alt_km": 741.3437683738193,
        "timestamp": "2025-12-17T10:52:54.750254+00:00",
        "meta_object_name": "COSMOS 2251 DEB",
        "meta_object_id": "1993-036BNS",
        "meta_epoch": "2025-12-11T11:15:11.696832",
        "meta_mean_motion": 14.37489039,
        "meta_eccentricity": 0.00502138,
        "meta_inclination": 74.0122,
        "meta_ra_of_asc_node": 267.468,
        "meta_arg_of_pericenter": 48.0201,
        "meta_mean_anomaly": 312.5213,
        "meta_ephemeris_type": 0,
        "meta_classification_type": "U",
        "meta_norad_cat_id": 37537,
        "meta_element_set_no": 999,
        "meta_rev_at_epoch": 85015,
        "meta_bstar": 0.0003879169,
        "meta_mean_motion_dot": 1.152e-05,
        "meta_mean_motion_ddot": 0,
        "tle_line1": "1 37537U 93036BNS 25345.46888538  .00001152  00000+0  38792-3 0  9995",
        "tle_line2": "2 37537  74.0122 267.4680 0050213  48.0201 312.5213 14.37489039850156"
      },
      "geometry": {
        "type": "Point",
        "coordinates": [
          -104.2574699937425,
          -2.4413508813537006
        ]
      }
    },
    {
      "type": "Feature",
      "properties": {
        "norad_id": 37546,
        "name": "COSMOS 2251 DEB",
        "group": "cosmos-2251-debris",
        "lat": 73.83260339035282,
        "lon": 169.92366152138862,
        "alt_km": 615.95276010816,
        "timestamp": "2025-12-17T10:52:54.750264+00:00",
        "meta_object_name": "COSMOS 2251 DEB",
        "meta_object_id": "1993-036BPB",
        "meta_epoch": "2025-12-16T23:08:14.868672",
        "meta_mean_motion": 14.80689154,
        "meta_eccentricity": 0.00053465,
        "meta_inclination": 74.0225,
        "meta_ra_of_asc_node": 89.6681,
        "meta_arg_of_pericenter": 93.2221,
        "meta_mean_anomaly": 266.9567,
        "meta_ephemeris_type": 0,
        "meta_classification_type": "U",
        "meta_norad_cat_id": 37546,
        "meta_element_set_no": 999,
        "meta_rev_at_epoch": 65950,
        "meta_bstar": 0.0019867347,
        "meta_mean_motion_dot": 0.00015285,
        "meta_mean_motion_ddot": 0,
        "tle_line1": "1 37546U 93036BPB 25350.96406098  .00015285  00000+0  19867-2 0  9996",
        "tle_line2": "2 37546  74.0225  89.6681 0005346  93.2221 266.9567 14.80689154659504"
      },
      "geometry": {
        "type": "Point",
        "coordinates": [
          169.92366152138862,
          73.83260339035282
        ]
      }
    },
    {
      "type": "Feature",
      "properties": {
        "norad_id": 37959,
        "name": "COSMOS 2251 DEB",
        "group": "cosmos-2251-debris",
        "lat": -71.89712201856993,
        "lon": -70.74687586464003,
        "alt_km": 692.9834825217749,
        "timestamp": "2025-12-17T10:52:54.750274+00:00",
        "meta_object_name": "COSMOS 2251 DEB",
        "meta_object_id": "1993-036BPJ",
        "meta_epoch": "2025-12-16T04:11:40.477056",
        "meta_mean_motion": 14.58168105,
        "meta_eccentricity": 0.00576225,
        "meta_inclination": 74.0114,
        "meta_ra_of_asc_node": 50.3978,
        "meta_arg_of_pericenter": 192.4748,
        "meta_mean_anomaly": 198.948,
        "meta_ephemeris_type": 0,
        "meta_classification_type": "U",
        "meta_norad_cat_id": 37959,
        "meta_element_set_no": 999,
        "meta_rev_at_epoch": 80177,
        "meta_bstar": 0.00044823071,
        "meta_mean_motion_dot": 2.084e-05,
        "meta_mean_motion_ddot": 0,
        "tle_line1": "1 37959U 93036BPJ 25350.17477404  .00002084  00000+0  44823-3 0  9990",
        "tle_line2": "2 37959  74.0114  50.3978 0057622 192.4748 198.9480 14.58168105801772"
      },
      "geometry": {
        "type": "Point",
        "coordinates": [
          -70.74687586464003,
          -71.89712201856993
        ]
      }
    },
    {
      "type": "Feature",
      "properties": {
        "norad_id": 37960,
        "name": "COSMOS 2251 DEB",
        "group": "cosmos-2251-debris",
        "lat": -11.206160011004085,
        "lon": 175.38550311201573,
        "alt_km": 1029.0911681022644,
        "timestamp": "2025-12-17T10:52:54.750284+00:00",
        "meta_object_name": "COSMOS 2251 DEB",
        "meta_object_id": "1993-036BPK",
        "meta_epoch": "2025-12-16T19:35:27.740256",
        "meta_mean_motion": 14.07867991,
        "meta_eccentricity": 0.02485393,
        "meta_inclination": 74.059,
        "meta_ra_of_asc_node": 179.7478,
        "meta_arg_of_pericenter": 197.3915,
        "meta_mean_anomaly": 161.86,
        "meta_ephemeris_type": 0,
        "meta_classification_type": "U",
        "meta_norad_cat_id": 37960,
        "meta_element_set_no": 999,
        "meta_rev_at_epoch": 77463,
        "meta_bstar": 0.00064570376,
        "meta_mean_motion_dot": 1.428e-05,
        "meta_mean_motion_ddot": 0,
        "tle_line1": "1 37960U 93036BPK 25350.81629329  .00001428  00000+0  64570-3 0  9990",
        "tle_line2": "2 37960  74.0590 179.7478 0248539 197.3915 161.8600 14.07867991774632"
      },
      "geometry": {
        "type": "Point",
        "coordinates": [
          175.38550311201573,
          -11.206160011004085
        ]
      }
    },
    {
      "type": "Feature",
      "properties": {
        "norad_id": 37961,
        "name": "COSMOS 2251 DEB",
        "group": "cosmos-2251-debris",
        "lat": -35.564392627422436,
        "lon": 116.33922428161769,
        "alt_km": 717.611654045546,
        "timestamp": "2025-12-17T10:52:54.750294+00:00",
        "meta_object_name": "COSMOS 2251 DEB",
        "meta_object_id": "1993-036BPL",
        "meta_epoch": "2025-12-13T03:18:27.462240",
        "meta_mean_motion": 14.57979799,
        "meta_eccentricity": 0.00406759,
        "meta_inclination": 74.0407,
        "meta_ra_of_asc_node": 136.3488,
        "meta_arg_of_pericenter": 216.8805,
        "meta_mean_anomaly": 142.9561,
        "meta_ephemeris_type": 0,
        "meta_classification_type": "U",
        "meta_norad_cat_id": 37961,
        "meta_element_set_no": 999,
        "meta_rev_at_epoch": 80071,
        "meta_bstar": 0.001729191,
        "meta_mean_motion_dot": 8.011e-05,
        "meta_mean_motion_ddot": 0,
        "tle_line1": "1 37961U 93036BPL 25347.13781785  .00008011  00000+0  17292-2 0  9990",
        "tle_line2": "2 37961  74.0407 136.3488 0040675 216.8805 142.9561 14.57979799800716"
      },
      "geometry": {
        "type": "Point",
        "coordinates": [
          116.33922428161769,
          -35.564392627422436
        ]
      }
    }
  ]
}